STARLINK-30360          
1 57776U 23134F   26068.42736046 -.00000007  00000+0  94085-5 0  9997
2 57776  42.9980 196.2238 0001188 219.3661 140.7104 15.26742217139460
XCUBE-1                 
1 62400U 24247Z   26068.48297321  .00009773  00000+0  36224-3 0  9994
2 62400  44.9938 117.7807 0005235 331.1499  28.9094 15.27910558 67702
